{"spkid": "50892214", "covariance": {"data": [["4.659905887660887E-14", "-5.222995128083967E-14", "-3.673062337083673E-12", "-4.05749389858443E-12", "-2.735587277621207E-12", "-3.388272723299252E-13"], ["-5.222995128083967E-14", "5.927284983123167E-14", "3.20707596050345E-12", "5.217557991502086E-12", "1.899158455072779E-12", "5.991686191852618E-13"], ["-3.673062337083673E-12", "3.20707596050345E-12", "4.020417429650633E-9", "-2.034758768865483E-9", "4.709852726465852E-9", "-8.086183974270718E-10"], ["-4.05749389858443E-12", "5.217557991502086E-12", "-2.034758768865483E-9", "4.951822468766924E-9", "-5.622154055309943E-9", "1.040414789070995E-9"], ["-2.735587277621207E-12", "1.899158455072779E-12", "4.709852726465852E-9", "-5.622154055309943E-9", "8.530115388493962E-9", "-1.452929947291035E-9"], ["-3.388272723299252E-13", "5.991686191852618E-13", "-8.086183974270718E-10", "1.040414789070995E-9", "-1.452929947291035E-9", "2.909110663875137E-10"]], "elements": [{"label": "e", "title": "eccentricity", "value": ".3272345841565621", "units": null, "sigma": 2.15868151603262e-07, "name": "e"}, {"sigma": 2.43460160665419e-07, "name": "q", "units": "au", "title": "perihelion distance", "value": "1.022229704946055", "label": "q"}, {"label": "tp", "title": "time of perihelion passage", "value": "2458720.915552129792", "units": "TDB", "name": "tp", "sigma": 6.3406761702918e-05}, {"name": "om", "sigma": 7.0369186926999e-05, "value": "188.5931201444143", "title": "longitude of the ascending node", "units": "deg", "label": "node"}, {"name": "w", "sigma": 9.2358623790602e-05, "units": "deg", "title": "argument of perihelion", "value": "155.1422278277664", "label": "peri"}, {"label": "i", "units": "deg", "value": "12.48625833261952", "title": "inclination", "sigma": 1.70561152196951e-05, "name": "i"}], "labels": ["e", "q", "tp", "node", "peri", "i"], "epoch": "2458703.5"}, "elements": [{"title": "eccentricity", "value": ".3273696191788491", "units": null, "name": "e", "sigma": "2.1586E-7", "label": "e"}, {"sigma": "1.3399E-7", "name": "a", "title": "semi-major axis", "value": "1.519099213813621", "units": "au", "label": "a"}, {"sigma": "2.436E-7", "name": "q", "units": "au", "title": "perihelion distance", "value": "1.021792282692567", "label": "q"}, {"sigma": "1.7055E-5", "name": "i", "units": "deg", "value": "12.49013427327349", "title": "inclination; angle with respect to x-y ecliptic plane", "label": "i"}, {"label": "node", "units": "deg", "title": "longitude of the ascending node", "value": "188.5515934133091", "name": "om", "sigma": "7.0361E-5"}, {"label": "peri", "name": "w", "sigma": "9.2318E-5", "units": "deg", "value": "155.1954025432522", "title": "argument of perihelion"}, {"sigma": ".00016127", "name": "ma", "title": "mean anomaly", "value": "225.1740949348985", "units": "deg", "label": "M"}, {"name": "tp", "sigma": ".00033971", "units": "TDB", "value": "2461456.622940294068", "title": "time of perihelion passage", "label": "tp"}, {"label": "period", "sigma": "9.0482E-5", "name": "per", "value": "683.8764290982738", "title": "sidereal orbital period", "units": "d"}, {"label": "n", "value": ".5264108904508941", "title": "mean motion", "units": "deg/d", "name": "n", "sigma": "6.9648E-8"}, {"label": "Q", "units": "au", "value": "2.016406144934675", "title": "aphelion distance", "name": "ad", "sigma": "1.7786E-7"}], "epoch": "2461200.5"}